{"fetched_at":"2026-07-23T17:55:45.751Z","source":"https://celestrak.org/NORAD/elements/gp.php?NAME=PLEIADES&FORMAT=JSON","constellation":"pleiades","records":[{"OBJECT_NAME":"PLEIADES 1A","OBJECT_ID":"2011-076F","EPOCH":"2026-07-23T08:23:41.057664","CLASSIFICATION_TYPE":"U","MEAN_MOTION":14.58549657,"ECCENTRICITY":0.00015645,"INCLINATION":98.1961,"RA_OF_ASC_NODE":278.9641,"ARG_OF_PERICENTER":78.4908,"MEAN_ANOMALY":354.8792,"EPHEMERIS_TYPE":0,"NORAD_CAT_ID":38012,"ELEMENT_SET_NO":999,"REV_AT_EPOCH":77726,"BSTAR":0.000037670062,"MEAN_MOTION_DOT":0.00000129,"MEAN_MOTION_DDOT":0},{"OBJECT_NAME":"PLEIADES 1B","OBJECT_ID":"2012-068A","EPOCH":"2026-07-23T07:13:48.918432","CLASSIFICATION_TYPE":"U","MEAN_MOTION":14.5853689,"ECCENTRICITY":0.0001454,"INCLINATION":98.1931,"RA_OF_ASC_NODE":278.8526,"ARG_OF_PERICENTER":78.5056,"MEAN_ANOMALY":281.6307,"EPHEMERIS_TYPE":0,"NORAD_CAT_ID":39019,"ELEMENT_SET_NO":999,"REV_AT_EPOCH":72611,"BSTAR":0.00002164354,"MEAN_MOTION_DOT":5.5e-7,"MEAN_MOTION_DDOT":0}]}
